[{"OBJECT_NAME":"STARLINK-2592","OBJECT_ID":"2021-038BH","EPOCH":"2026-03-09T21:49:49.251648","MEAN_MOTION":15.30181978,"ECCENTRICITY":0.0001165,"INCLINATION":53.16,"RA_OF_ASC_NODE":332.0634,"ARG_OF_PERICENTER":103.8382,"MEAN_ANOMALY":256.2748,"EPHEMERIS_TYPE":0,"CLASSIFICATION_TYPE":"U","NORAD_CAT_ID":48408,"ELEMENT_SET_NO":999,"REV_AT_EPOCH":26746,"BSTAR":-9.0579688e-5,"MEAN_MOTION_DOT":-3.039e-5,"MEAN_MOTION_DDOT":0},{"OBJECT_NAME":"UHETSAT","OBJECT_ID":"2023-185E","EPOCH":"2026-03-09T22:39:26.455680","MEAN_MOTION":15.29797662,"ECCENTRICITY":0.00118435,"INCLINATION":97.3584,"RA_OF_ASC_NODE":137.3576,"ARG_OF_PERICENTER":307.7346,"MEAN_ANOMALY":52.2821,"EPHEMERIS_TYPE":0,"CLASSIFICATION_TYPE":"U","NORAD_CAT_ID":58466,"ELEMENT_SET_NO":999,"REV_AT_EPOCH":12611,"BSTAR":0.00030513019,"MEAN_MOTION_DOT":8.749e-5,"MEAN_MOTION_DDOT":0}]
